{"type": "FeatureCollection", "features": [ {"type": "Feature", "properties": {"norad_id": 31412, "name": "FENGYUN 1C DEB", "group": "fengyun-1c-debris", "lat": -81.221066522241, "lon": 13.471834237702344, "alt_km": 824.8809583022748, "timestamp": "2025-12-18T23:35:49.342829+00:00", "meta": {"OBJECT_NAME": "FENGYUN 1C DEB", "OBJECT_ID": "1999-025BSY", "EPOCH": "2025-12-18T06:58:31.889568", "MEAN_MOTION": 14.09872535, "ECCENTRICITY": 0.00833273, "INCLINATION": 98.5486, "RA_OF_ASC_NODE": 295.9132, "ARG_OF_PERICENTER": 319.8395, "MEAN_ANOMALY": 39.6637, "EPHEMERIS_TYPE": 0, "CLASSIFICATION_TYPE": "U", "NORAD_CAT_ID": 31412, "ELEMENT_SET_NO": 999, "REV_AT_EPOCH": 61070, "BSTAR": 0.0015591664, "MEAN_MOTION_DOT": 2.792e-05, "MEAN_MOTION_DDOT": 0}, "tle": {"line1": "1 31412U 99025BSY 25352.29064687  .00002792  00000+0  15592-2 0  9998", "line2": "2 31412  98.5486 295.9132 0083327 319.8395  39.6637 14.09872535610707"}}, "geometry": {"type": "Point", "coordinates": [13.471834237702344, -81.221066522241]}}, {"type": "Feature", "properties": {"norad_id": 31415, "name": "FENGYUN 1C DEB", "group": "fengyun-1c-debris", "lat": -52.417451504124145, "lon": 112.94218446241833, "alt_km": 842.3408818577109, "timestamp": "2025-12-18T23:35:49.342839+00:00", "meta": {"OBJECT_NAME": "FENGYUN 1C DEB", "OBJECT_ID": "1999-025BTB", "EPOCH": "2025-12-14T14:26:42.789696", "MEAN_MOTION": 14.30617484, "ECCENTRICITY": 0.00641277, "INCLINATION": 99.6387, "RA_OF_ASC_NODE": 300.8477, "ARG_OF_PERICENTER": 69.4394, "MEAN_ANOMALY": 291.365, "EPHEMERIS_TYPE": 0, "CLASSIFICATION_TYPE": "U", "NORAD_CAT_ID": 31415, "ELEMENT_SET_NO": 999, "REV_AT_EPOCH": 62857, "BSTAR": 0.0013058291, "MEAN_MOTION_DOT": 3.436e-05, "MEAN_MOTION_DDOT": 0}, "tle": {"line1": "1 31415U 99025BTB 25348.60188414  .00003436  00000+0  13058-2 0  9997", "line2": "2 31415  99.6387 300.8477 0064127  69.4394 291.3650 14.30617484628574"}}, "geometry": {"type": "Point", "coordinates": [112.94218446241833, -52.417451504124145]}}, {"type": "Feature", "properties": {"norad_id": 31416, "name": "FENGYUN 1C DEB", "group": "fengyun-1c-debris", "lat": 40.92302450697242, "lon": -128.48341290742312, "alt_km": 758.622737670079, "timestamp": "2025-12-18T23:35:49.342849+00:00", "meta": {"OBJECT_NAME": "FENGYUN 1C DEB", "OBJECT_ID": "1999-025BTC", "EPOCH": "2025-12-15T23:16:12.713376", "MEAN_MOTION": 14.40679331, "ECCENTRICITY": 0.01330504, "INCLINATION": 99.0509, "RA_OF_ASC_NODE": 40.3861, "ARG_OF_PERICENTER": 241.4386, "MEAN_ANOMALY": 117.3356, "EPHEMERIS_TYPE": 0, "CLASSIFICATION_TYPE": "U", "NORAD_CAT_ID": 31416, "ELEMENT_SET_NO": 999, "REV_AT_EPOCH": 65566, "BSTAR": 0.00028672946, "MEAN_MOTION_DOT": 9.62e-06, "MEAN_MOTION_DDOT": 0}, "tle": {"line1": "1 31416U 99025BTC 25349.96959159  .00000962  00000+0  28673-3 0  9991", "line2": "2 31416  99.0509  40.3861 0133050 241.4386 117.3356 14.40679331655663"}}, "geometry": {"type": "Point", "coordinates": [-128.48341290742312, 40.92302450697242]}}, {"type": "Feature", "properties": {"norad_id": 31420, "name": "FENGYUN 1C DEB", "group": "fengyun-1c-debris", "lat": -12.155084789399641, "lon": -108.14930729848918, "alt_km": 684.5140825525013, "timestamp": "2025-12-18T23:35:49.342859+00:00", "meta": {"OBJECT_NAME": "FENGYUN 1C DEB", "OBJECT_ID": "1999-025BTG", "EPOCH": "2025-12-17T05:01:53.002272", "MEAN_MOTION": 14.40830352, "ECCENTRICITY": 0.01354178, "INCLINATION": 97.5587, "RA_OF_ASC_NODE": 248.6429, "ARG_OF_PERICENTER": 314.3459, "MEAN_ANOMALY": 198.4951, "EPHEMERIS_TYPE": 0, "CLASSIFICATION_TYPE": "U", "NORAD_CAT_ID": 31420, "ELEMENT_SET_NO": 999, "REV_AT_EPOCH": 65058, "BSTAR": 0.00048925496, "MEAN_MOTION_DOT": 1.706e-05, "MEAN_MOTION_DDOT": 0}, "tle": {"line1": "1 31420U 99025BTG 25351.20964123  .00001706  00000+0  48925-3 0  9992", "line2": "2 31420  97.5587 248.6429 0135417 314.3459 198.4951 14.40830352650589"}}, "geometry": {"type": "Point", "coordinates": [-108.14930729848918, -12.155084789399641]}}, {"type": "Feature", "properties": {"norad_id": 31422, "name": "FENGYUN 1C DEB", "group": "fengyun-1c-debris", "lat": -79.88676220368801, "lon": 49.601733098205436, "alt_km": 843.758876170773, "timestamp": "2025-12-18T23:35:49.342869+00:00", "meta": {"OBJECT_NAME": "FENGYUN 1C DEB", "OBJECT_ID": "1999-025BTJ", "EPOCH": "2025-12-17T11:14:37.109184", "MEAN_MOTION": 14.09628168, "ECCENTRICITY": 0.0033735, "INCLINATION": 98.7609, "RA_OF_ASC_NODE": 348.296, "ARG_OF_PERICENTER": 287.1105, "MEAN_ANOMALY": 225.5769, "EPHEMERIS_TYPE": 0, "CLASSIFICATION_TYPE": "U", "NORAD_CAT_ID": 31422, "ELEMENT_SET_NO": 999, "REV_AT_EPOCH": 95728, "BSTAR": 0.00035482533, "MEAN_MOTION_DOT": 5.82e-06, "MEAN_MOTION_DDOT": 0}, "tle": {"line1": "1 31422U 99025BTJ 25351.46848506  .00000582  00000+0  35483-3 0  9994", "line2": "2 31422  98.7609 348.2960 0033735 287.1105 225.5769 14.09628168957282"}}, "geometry": {"type": "Point", "coordinates": [49.601733098205436, -79.88676220368801]}}, {"type": "Feature", "properties": {"norad_id": 31423, "name": "FENGYUN 1C DEB", "group": "fengyun-1c-debris", "lat": -29.204254577445532, "lon": -21.510946104979954, "alt_km": 844.8128296048371, "timestamp": "2025-12-18T23:35:49.342880+00:00", "meta": {"OBJECT_NAME": "FENGYUN 1C DEB", "OBJECT_ID": "1999-025BTK", "EPOCH": "2025-12-18T05:10:24.242304", "MEAN_MOTION": 14.22975405, "ECCENTRICITY": 0.0036365, "INCLINATION": 98.5838, "RA_OF_ASC_NODE": 332.8976, "ARG_OF_PERICENTER": 177.9497, "MEAN_ANOMALY": 182.1837, "EPHEMERIS_TYPE": 0, "CLASSIFICATION_TYPE": "U", "NORAD_CAT_ID": 31423, "ELEMENT_SET_NO": 999, "REV_AT_EPOCH": 97046, "BSTAR": 0.00012196321, "MEAN_MOTION_DOT": 2.34e-06, "MEAN_MOTION_DDOT": 0}, "tle": {"line1": "1 31423U 99025BTK 25352.21555836  .00000234  00000+0  12196-3 0  9990", "line2": "2 31423  98.5838 332.8976 0036365 177.9497 182.1837 14.22975405970466"}}, "geometry": {"type": "Point", "coordinates": [-21.510946104979954, -29.204254577445532]}}, {"type": "Feature", "properties": {"norad_id": 31424, "name": "FENGYUN 1C DEB", "group": "fengyun-1c-debris", "lat": 57.48453306486404, "lon": -129.8576722306789, "alt_km": 802.2736762611294, "timestamp": "2025-12-18T23:35:49.342890+00:00", "meta": {"OBJECT_NAME": "FENGYUN 1C DEB", "OBJECT_ID": "1999-025BTL", "EPOCH": "2025-12-15T09:46:37.838496", "MEAN_MOTION": 14.08361564, "ECCENTRICITY": 0.0094527, "INCLINATION": 98.4812, "RA_OF_ASC_NODE": 33.2428, "ARG_OF_PERICENTER": 97.8675, "MEAN_ANOMALY": 263.3238, "EPHEMERIS_TYPE": 0, "CLASSIFICATION_TYPE": "U", "NORAD_CAT_ID": 31424, "ELEMENT_SET_NO": 999, "REV_AT_EPOCH": 63208, "BSTAR": 0.00029708146, "MEAN_MOTION_DOT": 4.9e-06, "MEAN_MOTION_DDOT": 0}, "tle": {"line1": "1 31424U 99025BTL 25349.40738239  .00000490  00000+0  29708-3 0  9999", "line2": "2 31424  98.4812  33.2428 0094527  97.8675 263.3238 14.08361564632083"}}, "geometry": {"type": "Point", "coordinates": [-129.8576722306789, 57.48453306486404]}}, {"type": "Feature", "properties": {"norad_id": 31426, "name": "FENGYUN 1C DEB", "group": "fengyun-1c-debris", "lat": -76.90084441358, "lon": -70.317159283581, "alt_km": 932.7595498561423, "timestamp": "2025-12-18T23:35:49.342900+00:00", "meta": {"OBJECT_NAME": "FENGYUN 1C DEB", "OBJECT_ID": "1999-025BTN", "EPOCH": "2025-12-16T05:34:38.178048", "MEAN_MOTION": 13.90100337, "ECCENTRICITY": 0.03246625, "INCLINATION": 98.5786, "RA_OF_ASC_NODE": 147.5838, "ARG_OF_PERICENTER": 176.436, "MEAN_ANOMALY": 1.2764, "EPHEMERIS_TYPE": 0, "CLASSIFICATION_TYPE": "U", "NORAD_CAT_ID": 31426, "ELEMENT_SET_NO": 999, "REV_AT_EPOCH": 93621, "BSTAR": 0.0015969626, "MEAN_MOTION_DOT": 2.98e-05, "MEAN_MOTION_DDOT": 0}, "tle": {"line1": "1 31426U 99025BTN 25350.23238632  .00002980  00000+0  15970-2 0  9997", "line2": "2 31426  98.5786 147.5838 0324662 176.4360   1.2764 13.90100337936215"}}, "geometry": {"type": "Point", "coordinates": [-70.317159283581, -76.90084441358]}}, {"type": "Feature", "properties": {"norad_id": 31427, "name": "FENGYUN 1C DEB", "group": "fengyun-1c-debris", "lat": -66.32325572559002, "lon": 122.67624402624747, "alt_km": 695.5392395954732, "timestamp": "2025-12-18T23:35:49.342911+00:00", "meta": {"OBJECT_NAME": "FENGYUN 1C DEB", "OBJECT_ID": "1999-025BTP", "EPOCH": "2025-12-18T05:47:54.672864", "MEAN_MOTION": 14.58782347, "ECCENTRICITY": 0.00311027, "INCLINATION": 98.6704, "RA_OF_ASC_NODE": 101.5375, "ARG_OF_PERICENTER": 1.2024, "MEAN_ANOMALY": 358.9243, "EPHEMERIS_TYPE": 0, "CLASSIFICATION_TYPE": "U", "NORAD_CAT_ID": 31427, "ELEMENT_SET_NO": 999, "REV_AT_EPOCH": 96961, "BSTAR": 0.0019331308, "MEAN_MOTION_DOT": 9.052e-05, "MEAN_MOTION_DDOT": 0}, "tle": {"line1": "1 31427U 99025BTP 25352.24160501  .00009052  00000+0  19331-2 0  9992", "line2": "2 31427  98.6704 101.5375 0031102   1.2024 358.9243 14.58782347969615"}}, "geometry": {"type": "Point", "coordinates": [122.67624402624747, -66.32325572559002]}}, {"type": "Feature", "properties": {"norad_id": 31428, "name": "FENGYUN 1C DEB", "group": "fengyun-1c-debris", "lat": 13.997134213988236, "lon": -37.4769204703259, "alt_km": 775.9873583960134, "timestamp": "2025-12-18T23:35:49.342922+00:00", "meta": {"OBJECT_NAME": "FENGYUN 1C DEB", "OBJECT_ID": "1999-025BTQ", "EPOCH": "2025-12-18T09:16:09.134976", "MEAN_MOTION": 14.42039984, "ECCENTRICITY": 0.00641699, "INCLINATION": 99.0374, "RA_OF_ASC_NODE": 324.1651, "ARG_OF_PERICENTER": 136.9554, "MEAN_ANOMALY": 20.532, "EPHEMERIS_TYPE": 0, "CLASSIFICATION_TYPE": "U", "NORAD_CAT_ID": 31428, "ELEMENT_SET_NO": 999, "REV_AT_EPOCH": 97591, "BSTAR": 0.00057334028, "MEAN_MOTION_DOT": 1.88e-05, "MEAN_MOTION_DDOT": 0}, "tle": {"line1": "1 31428U 99025BTQ 25352.38621684  .00001880  00000+0  57334-3 0  9999", "line2": "2 31428  99.0374 324.1651 0064169 136.9554  20.5320 14.42039984975910"}}, "geometry": {"type": "Point", "coordinates": [-37.4769204703259, 13.997134213988236]}}]}